JILIN-1 GAOFEN 03D51    
1 54252U 22155B   26200.28587778  .00037624  00000+0  38114-3 0  9996
2 54252  97.6268 347.6425 0004625 216.9589 143.1352 15.65169878204760
JILIN-1 GAOFEN 03D53    
1 54253U 22155C   26200.29194247  .00021069  00000+0  32002-3 0  9999
2 54253  97.6258 342.7814 0005074 233.8154 126.2630 15.54594564204474
JILIN-1 GAOFEN 03D52    
1 54255U 22155E   26200.28163038  .00029514  00000+0  33520-3 0  9993
2 54255  97.6242 345.8288 0003976 231.1480 128.9423 15.62294814204710
JILIN-1 GAOFEN 03D50    
1 54690U 22167J   26200.26995106  .00006107  00000+0  18173-3 0  9996
2 54690  97.6863   9.4434 0004825   7.9015 352.2303 15.35111346200279
JILIN-1 GAOFEN 03D47    
1 54692U 22167L   26200.27575273  .00005476  00000+0  16690-3 0  9998
2 54692  97.6960  11.1881 0007429  15.9318 344.2156 15.34390269200261
JILIN-1 GAOFEN 03D49    
1 54694U 22167N   26200.28157010  .00007162  00000+0  19326-3 0  9999
2 54694  97.6837  11.8682 0005713  36.7616 323.4019 15.38099861200421
JILIN-1 GAOFEN 03D48    
1 54695U 22167P   26200.26055084  .00005938  00000+0  17267-3 0  9997
2 54695  97.6909  11.1616 0006074  16.4127 343.7311 15.35843576200310
JILIN GAOFEN OBJECT A   
1 68691U 26080A   26198.71960546  .00001863  00000+0  12114-3 0  9999
2 68691  97.6607 274.1951 0010995 325.9072  34.1449 15.09211185 14269
JILIN GAOFEN OBJECT B   
1 68692U 26080B   26200.22734517  .00002826  00000+0  18286-3 0  9993
2 68692  97.6582 275.7117 0015632 298.3151  61.6500 15.08920777 14498
JILIN GAOFEN OBJECT C   
1 68693U 26080C   26198.71884003  .00001932  00000+0  12646-3 0  9991
2 68693  97.6590 274.1766 0013165 305.9926  54.0081 15.08910570 14260
JILIN GAOFEN OBJECT D   
1 68694U 26080D   26200.29432795  .00002805  00000+0  18118-3 0  9996
2 68694  97.6646 275.8561 0016266 310.0993  49.8808 15.08979917 14483
JILIN GAOFEN OBJECT E   
1 68695U 26080E   26200.27611855  .00002375  00000+0  15434-3 0  9991
2 68695  97.6630 275.8572 0013496 321.1863  38.8395 15.08942167 14464
JILIN GAOFEN OBJECT F   
1 68696U 26080F   26200.27518347  .00002264  00000+0  14742-3 0  9992
2 68696  97.6601 275.8230 0012150 324.0528  35.9882 15.08925831 14468
JILIN GAOFEN OBJECT G   
1 68697U 26080G   26200.26128314  .00002041  00000+0  13328-3 0  9995
2 68697  97.6645 275.8957 0014345 320.5112  39.5070 15.08917245 14460
JILIN GAOFEN OBJECT H   
1 68698U 26080H   26198.73397818  .00002108  00000+0  13743-3 0  9996
2 68698  97.6635 274.3604 0014772 328.0239  32.0092 15.08938632 14230
