{"fetched_at":"2026-07-19T17:31:39.333Z","source":"https://celestrak.org/NORAD/elements/gp.php?NAME=JILIN&FORMAT=JSON","constellation":"jilin-1-gaofen","records":[{"OBJECT_NAME":"JILIN-1 GAOFEN 03D51","OBJECT_ID":"2022-155B","EPOCH":"2026-07-19T06:51:39.840192","CLASSIFICATION_TYPE":"U","MEAN_MOTION":15.65169878,"ECCENTRICITY":0.00046257,"INCLINATION":97.6268,"RA_OF_ASC_NODE":347.6425,"ARG_OF_PERICENTER":216.9589,"MEAN_ANOMALY":143.1352,"EPHEMERIS_TYPE":0,"NORAD_CAT_ID":54252,"ELEMENT_SET_NO":999,"REV_AT_EPOCH":20476,"BSTAR":0.00038113682,"MEAN_MOTION_DOT":0.00037624,"MEAN_MOTION_DDOT":0},{"OBJECT_NAME":"JILIN-1 GAOFEN 03D53","OBJECT_ID":"2022-155C","EPOCH":"2026-07-19T07:00:23.829408","CLASSIFICATION_TYPE":"U","MEAN_MOTION":15.54594564,"ECCENTRICITY":0.00050748,"INCLINATION":97.6258,"RA_OF_ASC_NODE":342.7814,"ARG_OF_PERICENTER":233.8154,"MEAN_ANOMALY":126.263,"EPHEMERIS_TYPE":0,"NORAD_CAT_ID":54253,"ELEMENT_SET_NO":999,"REV_AT_EPOCH":20447,"BSTAR":0.00032002367,"MEAN_MOTION_DOT":0.00021069,"MEAN_MOTION_DDOT":0},{"OBJECT_NAME":"JILIN-1 GAOFEN 03D52","OBJECT_ID":"2022-155E","EPOCH":"2026-07-19T06:45:32.864832","CLASSIFICATION_TYPE":"U","MEAN_MOTION":15.62294814,"ECCENTRICITY":0.00039767,"INCLINATION":97.6242,"RA_OF_ASC_NODE":345.8288,"ARG_OF_PERICENTER":231.148,"MEAN_ANOMALY":128.9423,"EPHEMERIS_TYPE":0,"NORAD_CAT_ID":54255,"ELEMENT_SET_NO":999,"REV_AT_EPOCH":20471,"BSTAR":0.00033520373,"MEAN_MOTION_DOT":0.00029514,"MEAN_MOTION_DDOT":0},{"OBJECT_NAME":"JILIN-1 GAOFEN 03D50","OBJECT_ID":"2022-167J","EPOCH":"2026-07-19T06:28:43.771584","CLASSIFICATION_TYPE":"U","MEAN_MOTION":15.35111346,"ECCENTRICITY":0.00048253,"INCLINATION":97.6863,"RA_OF_ASC_NODE":9.4434,"ARG_OF_PERICENTER":7.9015,"MEAN_ANOMALY":352.2303,"EPHEMERIS_TYPE":0,"NORAD_CAT_ID":54690,"ELEMENT_SET_NO":999,"REV_AT_EPOCH":20027,"BSTAR":0.00018172863,"MEAN_MOTION_DOT":0.00006107,"MEAN_MOTION_DDOT":0},{"OBJECT_NAME":"JILIN-1 GAOFEN 03D47","OBJECT_ID":"2022-167L","EPOCH":"2026-07-19T06:37:05.035872","CLASSIFICATION_TYPE":"U","MEAN_MOTION":15.34390269,"ECCENTRICITY":0.00074298,"INCLINATION":97.696,"RA_OF_ASC_NODE":11.1881,"ARG_OF_PERICENTER":15.9318,"MEAN_ANOMALY":344.2156,"EPHEMERIS_TYPE":0,"NORAD_CAT_ID":54692,"ELEMENT_SET_NO":999,"REV_AT_EPOCH":20026,"BSTAR":0.00016689986,"MEAN_MOTION_DOT":0.00005476,"MEAN_MOTION_DDOT":0},{"OBJECT_NAME":"JILIN-1 GAOFEN 03D49","OBJECT_ID":"2022-167N","EPOCH":"2026-07-19T06:45:27.656640","CLASSIFICATION_TYPE":"U","MEAN_MOTION":15.38099861,"ECCENTRICITY":0.00057132,"INCLINATION":97.6837,"RA_OF_ASC_NODE":11.8682,"ARG_OF_PERICENTER":36.7616,"MEAN_ANOMALY":323.4019,"EPHEMERIS_TYPE":0,"NORAD_CAT_ID":54694,"ELEMENT_SET_NO":999,"REV_AT_EPOCH":20042,"BSTAR":0.00019326126,"MEAN_MOTION_DOT":0.00007162,"MEAN_MOTION_DDOT":0},{"OBJECT_NAME":"JILIN-1 GAOFEN 03D48","OBJECT_ID":"2022-167P","EPOCH":"2026-07-19T06:15:11.592576","CLASSIFICATION_TYPE":"U","MEAN_MOTION":15.35843576,"ECCENTRICITY":0.0006074,"INCLINATION":97.6909,"RA_OF_ASC_NODE":11.1616,"ARG_OF_PERICENTER":16.4127,"MEAN_ANOMALY":343.7311,"EPHEMERIS_TYPE":0,"NORAD_CAT_ID":54695,"ELEMENT_SET_NO":999,"REV_AT_EPOCH":20031,"BSTAR":0.00017267489,"MEAN_MOTION_DOT":0.00005938,"MEAN_MOTION_DDOT":0},{"OBJECT_NAME":"JILIN GAOFEN OBJECT A","OBJECT_ID":"2026-080A","EPOCH":"2026-07-17T17:16:13.911744","CLASSIFICATION_TYPE":"U","MEAN_MOTION":15.09211185,"ECCENTRICITY":0.00109955,"INCLINATION":97.6607,"RA_OF_ASC_NODE":274.1951,"ARG_OF_PERICENTER":325.9072,"MEAN_ANOMALY":34.1449,"EPHEMERIS_TYPE":0,"NORAD_CAT_ID":68691,"ELEMENT_SET_NO":999,"REV_AT_EPOCH":1426,"BSTAR":0.00012113513,"MEAN_MOTION_DOT":0.00001863,"MEAN_MOTION_DDOT":0},{"OBJECT_NAME":"JILIN GAOFEN OBJECT B","OBJECT_ID":"2026-080B","EPOCH":"2026-07-19T05:27:22.622688","CLASSIFICATION_TYPE":"U","MEAN_MOTION":15.08920777,"ECCENTRICITY":0.00156322,"INCLINATION":97.6582,"RA_OF_ASC_NODE":275.7117,"ARG_OF_PERICENTER":298.3151,"MEAN_ANOMALY":61.65,"EPHEMERIS_TYPE":0,"NORAD_CAT_ID":68692,"ELEMENT_SET_NO":999,"REV_AT_EPOCH":1449,"BSTAR":0.0001828594,"MEAN_MOTION_DOT":0.00002826,"MEAN_MOTION_DDOT":0},{"OBJECT_NAME":"JILIN GAOFEN OBJECT C","OBJECT_ID":"2026-080C","EPOCH":"2026-07-17T17:15:07.778592","CLASSIFICATION_TYPE":"U","MEAN_MOTION":15.0891057,"ECCENTRICITY":0.00131651,"INCLINATION":97.659,"RA_OF_ASC_NODE":274.1766,"ARG_OF_PERICENTER":305.9926,"MEAN_ANOMALY":54.0081,"EPHEMERIS_TYPE":0,"NORAD_CAT_ID":68693,"ELEMENT_SET_NO":999,"REV_AT_EPOCH":1426,"BSTAR":0.00012645548,"MEAN_MOTION_DOT":0.00001932,"MEAN_MOTION_DDOT":0},{"OBJECT_NAME":"JILIN GAOFEN OBJECT D","OBJECT_ID":"2026-080D","EPOCH":"2026-07-19T07:03:49.934880","CLASSIFICATION_TYPE":"U","MEAN_MOTION":15.08979917,"ECCENTRICITY":0.0016266,"INCLINATION":97.6646,"RA_OF_ASC_NODE":275.8561,"ARG_OF_PERICENTER":310.0993,"MEAN_ANOMALY":49.8808,"EPHEMERIS_TYPE":0,"NORAD_CAT_ID":68694,"ELEMENT_SET_NO":999,"REV_AT_EPOCH":1448,"BSTAR":0.00018117565,"MEAN_MOTION_DOT":0.00002805,"MEAN_MOTION_DDOT":0},{"OBJECT_NAME":"JILIN GAOFEN OBJECT E","OBJECT_ID":"2026-080E","EPOCH":"2026-07-19T06:37:36.642720","CLASSIFICATION_TYPE":"U","MEAN_MOTION":15.08942167,"ECCENTRICITY":0.00134963,"INCLINATION":97.663,"RA_OF_ASC_NODE":275.8572,"ARG_OF_PERICENTER":321.1863,"MEAN_ANOMALY":38.8395,"EPHEMERIS_TYPE":0,"NORAD_CAT_ID":68695,"ELEMENT_SET_NO":999,"REV_AT_EPOCH":1446,"BSTAR":0.00015434487,"MEAN_MOTION_DOT":0.00002375,"MEAN_MOTION_DDOT":0},{"OBJECT_NAME":"JILIN GAOFEN OBJECT F","OBJECT_ID":"2026-080F","EPOCH":"2026-07-19T06:36:15.851808","CLASSIFICATION_TYPE":"U","MEAN_MOTION":15.08925831,"ECCENTRICITY":0.00121506,"INCLINATION":97.6601,"RA_OF_ASC_NODE":275.823,"ARG_OF_PERICENTER":324.0528,"MEAN_ANOMALY":35.9882,"EPHEMERIS_TYPE":0,"NORAD_CAT_ID":68696,"ELEMENT_SET_NO":999,"REV_AT_EPOCH":1446,"BSTAR":0.00014742128,"MEAN_MOTION_DOT":0.00002264,"MEAN_MOTION_DDOT":0},{"OBJECT_NAME":"JILIN GAOFEN OBJECT G","OBJECT_ID":"2026-080G","EPOCH":"2026-07-19T06:16:14.863296","CLASSIFICATION_TYPE":"U","MEAN_MOTION":15.08917245,"ECCENTRICITY":0.00143452,"INCLINATION":97.6645,"RA_OF_ASC_NODE":275.8957,"ARG_OF_PERICENTER":320.5112,"MEAN_ANOMALY":39.507,"EPHEMERIS_TYPE":0,"NORAD_CAT_ID":68697,"ELEMENT_SET_NO":999,"REV_AT_EPOCH":1446,"BSTAR":0.00013328246,"MEAN_MOTION_DOT":0.00002041,"MEAN_MOTION_DDOT":0},{"OBJECT_NAME":"JILIN GAOFEN OBJECT H","OBJECT_ID":"2026-080H","EPOCH":"2026-07-17T17:36:55.714752","CLASSIFICATION_TYPE":"U","MEAN_MOTION":15.08938632,"ECCENTRICITY":0.00147724,"INCLINATION":97.6635,"RA_OF_ASC_NODE":274.3604,"ARG_OF_PERICENTER":328.0239,"MEAN_ANOMALY":32.0092,"EPHEMERIS_TYPE":0,"NORAD_CAT_ID":68698,"ELEMENT_SET_NO":999,"REV_AT_EPOCH":1423,"BSTAR":0.00013742567,"MEAN_MOTION_DOT":0.00002108,"MEAN_MOTION_DDOT":0}]}
